{
    "links": {
        "self": "http://www.neowsapp.com/rest/v1/neo/54016381?api_key=iIulBulltgU6a56xZRHN4H3l9WmuAYTsLGpBGhQ2"
    },
    "id": "54016381",
    "neo_reference_id": "54016381",
    "name": "(2020 FT5)",
    "designation": "2020 FT5",
    "nasa_jpl_url": "http://ssd.jpl.nasa.gov/sbdb.cgi?sstr=54016381",
    "absolute_magnitude_h": 25.961,
    "estimated_diameter": {
        "kilometers": {
            "estimated_diameter_min": 0.0170747745,
            "estimated_diameter_max": 0.0381803565
        },
        "meters": {
            "estimated_diameter_min": 17.0747744912,
            "estimated_diameter_max": 38.1803564628
        },
        "miles": {
            "estimated_diameter_min": 0.0106097697,
            "estimated_diameter_max": 0.0237241663
        },
        "feet": {
            "estimated_diameter_min": 56.0196031417,
            "estimated_diameter_max": 125.2636406974
        }
    },
    "is_potentially_hazardous_asteroid": false,
    "close_approach_data": [
        {
            "close_approach_date": "2020-03-27",
            "close_approach_date_full": "2020-Mar-27 10:12",
            "epoch_date_close_approach": 1585303920000,
            "relative_velocity": {
                "kilometers_per_second": "13.1706056498",
                "kilometers_per_hour": "47414.1803391432",
                "miles_per_hour": "29461.3277779526"
            },
            "miss_distance": {
                "astronomical": "0.0249142051",
                "lunar": "9.6916257839",
                "kilometers": "3727112.015703137",
                "miles": "2315920.0159198106"
            },
            "orbiting_body": "Earth"
        },
        {
            "close_approach_date": "2107-03-20",
            "close_approach_date_full": "2107-Mar-20 03:21",
            "epoch_date_close_approach": 4330034460000,
            "relative_velocity": {
                "kilometers_per_second": "17.4279333175",
                "kilometers_per_hour": "62740.559942986",
                "miles_per_hour": "38984.544037907"
            },
            "miss_distance": {
                "astronomical": "0.1596056442",
                "lunar": "62.0865955938",
                "kilometers": "23876664.412297854",
                "miles": "14836271.2987602252"
            },
            "orbiting_body": "Earth"
        }
    ],
    "orbital_data": {
        "orbit_id": "2",
        "orbit_determination_date": "2020-03-27 05:59:05",
        "first_observation_date": "2020-03-25",
        "last_observation_date": "2020-03-27",
        "data_arc_in_days": 2,
        "observations_used": 32,
        "orbit_uncertainty": "8",
        "minimum_orbit_intersection": ".0174339",
        "jupiter_tisserand_invariant": "4.030",
        "epoch_osculation": "2458934.5",
        "eccentricity": ".5091619665846469",
        "semi_major_axis": "1.708653210389484",
        "inclination": "2.978998093090674",
        "ascending_node_longitude": "169.1374756864942",
        "orbital_period": "815.791765404089",
        "perihelion_distance": ".838671981576404",
        "perihelion_argument": "78.11462738975177",
        "aphelion_distance": "2.578634439202564",
        "perihelion_time": "2458978.616696133044",
        "mean_anomaly": "340.5317836224677",
        "mean_motion": ".4412890829091416",
        "equinox": "J2000",
        "orbit_class": {
            "orbit_class_type": "APO",
            "orbit_class_description": "Near-Earth asteroid orbits which cross the Earth’s orbit similar to that of 1862 Apollo",
            "orbit_class_range": "a (semi-major axis) > 1.0 AU; q (perihelion) < 1.017 AU"
        }
    },
    "is_sentry_object": false
}